[{"OBJECT_NAME":"STARLINK-1801","OBJECT_ID":"2020-073AH","EPOCH":"2026-03-10T00:00:02.999808","MEAN_MOTION":15.71605578,"ECCENTRICITY":0.00058448,"INCLINATION":53.0451,"RA_OF_ASC_NODE":196.4487,"ARG_OF_PERICENTER":213.6688,"MEAN_ANOMALY":260.6117,"EPHEMERIS_TYPE":0,"CLASSIFICATION_TYPE":"U","NORAD_CAT_ID":46701,"ELEMENT_SET_NO":999,"REV_AT_EPOCH":590,"BSTAR":4.5163381e-5,"MEAN_MOTION_DOT":5.32e-5,"MEAN_MOTION_DDOT":0},{"OBJECT_NAME":"STARLINK-11072 [DTC]","OBJECT_ID":"2024-002A","EPOCH":"2026-03-09T20:33:48.555072","MEAN_MOTION":15.69686434,"ECCENTRICITY":0.00010468,"INCLINATION":53.1587,"RA_OF_ASC_NODE":273.1911,"ARG_OF_PERICENTER":130.7449,"MEAN_ANOMALY":229.366,"EPHEMERIS_TYPE":0,"CLASSIFICATION_TYPE":"U","NORAD_CAT_ID":58705,"ELEMENT_SET_NO":999,"REV_AT_EPOCH":12646,"BSTAR":-9.575718e-6,"MEAN_MOTION_DOT":-1.747e-5,"MEAN_MOTION_DDOT":0}]
